{
  "type": "FeatureCollection",
  "features": [
    {
      "type": "Feature",
      "properties": {
        "norad_id": 38091,
        "name": "BEIDOU-2 G5 (C05)",
        "group": "gnss",
        "lat": -2.9119495127765003,
        "lon": 0.6230448508015645,
        "alt_km": 35762.559871916535,
        "timestamp": "2025-12-09T14:52:26.404323+00:00",
        "meta_object_name": "BEIDOU-2 G5 (C05)",
        "meta_object_id": "2012-008A",
        "meta_epoch": "2025-12-09T03:34:44.021568",
        "meta_mean_motion": 1.00274149,
        "meta_eccentricity": 0.00125198,
        "meta_inclination": 3.1,
        "meta_ra_of_asc_node": 70.7096,
        "meta_arg_of_pericenter": 226.0989,
        "meta_mean_anomaly": 253.7636,
        "meta_ephemeris_type": 0,
        "meta_classification_type": "U",
        "meta_norad_cat_id": 38091,
        "meta_element_set_no": 999,
        "meta_rev_at_epoch": 5046,
        "meta_bstar": 0,
        "meta_mean_motion_dot": 5.8e-07,
        "meta_mean_motion_ddot": 0,
        "tle_line1": "1 38091U 12008A   25343.14912062  .00000058  00000+0  00000+0 0  9995",
        "tle_line2": "2 38091   3.1000  70.7096 0012519 226.0989 253.7636  1.00274149 50465"
      },
      "geometry": {
        "type": "Point",
        "coordinates": [
          0.6230448508015645,
          -2.9119495127765003
        ]
      }
    },
    {
      "type": "Feature",
      "properties": {
        "norad_id": 38250,
        "name": "BEIDOU-2 M3 (C11)",
        "group": "gnss",
        "lat": -12.562209294259148,
        "lon": -57.425737297005234,
        "alt_km": 21507.734345657245,
        "timestamp": "2025-12-09T14:52:26.404336+00:00",
        "meta_object_name": "BEIDOU-2 M3 (C11)",
        "meta_object_id": "2012-018A",
        "meta_epoch": "2025-12-09T02:31:53.120352",
        "meta_mean_motion": 1.86229518,
        "meta_eccentricity": 0.00244853,
        "meta_inclination": 55.923,
        "meta_ra_of_asc_node": 311.2799,
        "meta_arg_of_pericenter": 273.6556,
        "meta_mean_anomaly": 86.0527,
        "meta_ephemeris_type": 0,
        "meta_classification_type": "U",
        "meta_norad_cat_id": 38250,
        "meta_element_set_no": 999,
        "meta_rev_at_epoch": 9240,
        "meta_bstar": 0,
        "meta_mean_motion_dot": -7.5e-07,
        "meta_mean_motion_ddot": 0,
        "tle_line1": "1 38250U 12018A   25343.10547593 -.00000075  00000+0  00000+0 0  9992",
        "tle_line2": "2 38250  55.9230 311.2799 0024485 273.6556  86.0527  1.86229518 92408"
      },
      "geometry": {
        "type": "Point",
        "coordinates": [
          -57.425737297005234,
          -12.562209294259148
        ]
      }
    },
    {
      "type": "Feature",
      "properties": {
        "norad_id": 38251,
        "name": "BEIDOU-2 M4 (C12)",
        "group": "gnss",
        "lat": 24.701671139154207,
        "lon": -31.32717164040494,
        "alt_km": 21542.69426415379,
        "timestamp": "2025-12-09T14:52:26.404350+00:00",
        "meta_object_name": "BEIDOU-2 M4 (C12)",
        "meta_object_id": "2012-018B",
        "meta_epoch": "2025-12-09T00:54:01.831680",
        "meta_mean_motion": 1.86229294,
        "meta_eccentricity": 0.00156482,
        "meta_inclination": 55.8248,
        "meta_ra_of_asc_node": 310.5114,
        "meta_arg_of_pericenter": 276.694,
        "meta_mean_anomaly": 83.1162,
        "meta_ephemeris_type": 0,
        "meta_classification_type": "U",
        "meta_norad_cat_id": 38251,
        "meta_element_set_no": 999,
        "meta_rev_at_epoch": 9240,
        "meta_bstar": 0,
        "meta_mean_motion_dot": -7.4e-07,
        "meta_mean_motion_ddot": 0,
        "tle_line1": "1 38251U 12018B   25343.03752120 -.00000074  00000+0  00000+0 0  9998",
        "tle_line2": "2 38251  55.8248 310.5114 0015648 276.6940  83.1162  1.86229294 92405"
      },
      "geometry": {
        "type": "Point",
        "coordinates": [
          -31.32717164040494,
          24.701671139154207
        ]
      }
    },
    {
      "type": "Feature",
      "properties": {
        "norad_id": 38652,
        "name": "SES-5 (EGNOS/PRN 136)",
        "group": "gnss",
        "lat": -0.00693117331412471,
        "lon": -53.28304763376326,
        "alt_km": 35779.79994860214,
        "timestamp": "2025-12-09T14:52:26.404362+00:00",
        "meta_object_name": "SES-5 (EGNOS/PRN 136)",
        "meta_object_id": "2012-036A",
        "meta_epoch": "2025-12-09T03:19:30.478944",
        "meta_mean_motion": 1.00272252,
        "meta_eccentricity": 0.00021386,
        "meta_inclination": 0.0588,
        "meta_ra_of_asc_node": 304.164,
        "meta_arg_of_pericenter": 315.0796,
        "meta_mean_anomaly": 233.7504,
        "meta_ephemeris_type": 0,
        "meta_classification_type": "U",
        "meta_norad_cat_id": 38652,
        "meta_element_set_no": 999,
        "meta_rev_at_epoch": 4256,
        "meta_bstar": 0,
        "meta_mean_motion_dot": 3.6e-07,
        "meta_mean_motion_ddot": 0,
        "tle_line1": "1 38652U 12036A   25343.13854721  .00000036  00000+0  00000+0 0  9991",
        "tle_line2": "2 38652   0.0588 304.1640 0002138 315.0796 233.7504  1.00272252 42562"
      },
      "geometry": {
        "type": "Point",
        "coordinates": [
          -53.28304763376326,
          -0.00693117331412471
        ]
      }
    },
    {
      "type": "Feature",
      "properties": {
        "norad_id": 38775,
        "name": "BEIDOU-2 M6 (C14)",
        "group": "gnss",
        "lat": -35.3938395219368,
        "lon": -82.64696835759892,
        "alt_km": 21548.498790782145,
        "timestamp": "2025-12-09T14:52:26.404374+00:00",
        "meta_object_name": "BEIDOU-2 M6 (C14)",
        "meta_object_id": "2012-050B",
        "meta_epoch": "2025-12-08T05:04:33.479040",
        "meta_mean_motion": 1.86230723,
        "meta_eccentricity": 0.00110356,
        "meta_inclination": 56.3747,
        "meta_ra_of_asc_node": 69.2178,
        "meta_arg_of_pericenter": 345.3738,
        "meta_mean_anomaly": 14.6151,
        "meta_ephemeris_type": 0,
        "meta_classification_type": "U",
        "meta_norad_cat_id": 38775,
        "meta_element_set_no": 999,
        "meta_rev_at_epoch": 8975,
        "meta_bstar": 0,
        "meta_mean_motion_dot": -4.4e-07,
        "meta_mean_motion_ddot": 0,
        "tle_line1": "1 38775U 12050B   25342.21149860 -.00000044  00000+0  00000+0 0  9992",
        "tle_line2": "2 38775  56.3747  69.2178 0011035 345.3738  14.6151  1.86230723 89759"
      },
      "geometry": {
        "type": "Point",
        "coordinates": [
          -82.64696835759892,
          -35.3938395219368
        ]
      }
    },
    {
      "type": "Feature",
      "properties": {
        "norad_id": 38779,
        "name": "GSAT-10 (GAGAN/PRN 128)",
        "group": "gnss",
        "lat": 0.019816930910966712,
        "lon": 24.68044208200121,
        "alt_km": 35787.452271715134,
        "timestamp": "2025-12-09T14:52:26.404386+00:00",
        "meta_object_name": "GSAT-10 (GAGAN/PRN 128)",
        "meta_object_id": "2012-051B",
        "meta_epoch": "2025-12-09T03:41:43.351872",
        "meta_mean_motion": 1.00273317,
        "meta_eccentricity": 0.00021701,
        "meta_inclination": 0.0164,
        "meta_ra_of_asc_node": 265.5862,
        "meta_arg_of_pericenter": 220.5597,
        "meta_mean_anomaly": 90.4212,
        "meta_ephemeris_type": 0,
        "meta_classification_type": "U",
        "meta_norad_cat_id": 38779,
        "meta_element_set_no": 999,
        "meta_rev_at_epoch": 4819,
        "meta_bstar": 0,
        "meta_mean_motion_dot": -1.63e-06,
        "meta_mean_motion_ddot": 0,
        "tle_line1": "1 38779U 12051B   25343.15397398 -.00000163  00000+0  00000+0 0  9994",
        "tle_line2": "2 38779   0.0164 265.5862 0002170 220.5597  90.4212  1.00273317 48195"
      },
      "geometry": {
        "type": "Point",
        "coordinates": [
          24.68044208200121,
          0.019816930910966712
        ]
      }
    },
    {
      "type": "Feature",
      "properties": {
        "norad_id": 38833,
        "name": "GPS BIIF-3  (PRN 24)",
        "group": "gnss",
        "lat": -8.193874951099831,
        "lon": -22.53377868086004,
        "alt_km": 20453.42249219983,
        "timestamp": "2025-12-09T14:52:26.404398+00:00",
        "meta_object_name": "GPS BIIF-3  (PRN 24)",
        "meta_object_id": "2012-053A",
        "meta_epoch": "2025-12-08T20:42:06.969888",
        "meta_mean_motion": 2.00564932,
        "meta_eccentricity": 0.01756647,
        "meta_inclination": 53.5568,
        "meta_ra_of_asc_node": 151.3974,
        "meta_arg_of_pericenter": 63.9455,
        "meta_mean_anomaly": 297.8485,
        "meta_ephemeris_type": 0,
        "meta_classification_type": "U",
        "meta_norad_cat_id": 38833,
        "meta_element_set_no": 999,
        "meta_rev_at_epoch": 9562,
        "meta_bstar": 0,
        "meta_mean_motion_dot": 5.9e-07,
        "meta_mean_motion_ddot": 0,
        "tle_line1": "1 38833U 12053A   25342.86258067  .00000059  00000+0  00000+0 0  9996",
        "tle_line2": "2 38833  53.5568 151.3974 0175664  63.9455 297.8485  2.00564932 95626"
      },
      "geometry": {
        "type": "Point",
        "coordinates": [
          -22.53377868086004,
          -8.193874951099831
        ]
      }
    }
  ]
}